OBJECT_NAME,OBJECT_ID,EPOCH,MEAN_MOTION,ECCENTRICITY,INCLINATION,RA_OF_ASC_NODE,ARG_OF_PERICENTER,MEAN_ANOMALY,EPHEMERIS_TYPE,CLASSIFICATION_TYPE,NORAD_CAT_ID,ELEMENT_SET_NO,REV_AT_EPOCH,BSTAR,MEAN_MOTION_DOT,MEAN_MOTION_DDOT
GONETS-M 19,2020-068C,2026-06-04T04:31:29.000640,12.42891926,.0014498,82.4966,355.1618,75.6400,284.6288,0,U,46488,999,25763,.20337E-3,.38E-6,0
DEKART,2020-068H,2026-06-03T23:49:12.626400,15.37031885,.0007993,97.8741,163.3210,343.4126,16.6854,0,U,46493,999,31374,.36439E-3,.13133E-3,0
NORBI,2020-068J,2026-06-04T02:25:25.853088,15.47877107,.0004812,97.8630,169.9181,314.0137,46.0715,0,U,46494,999,31418,.46906E-3,.2436E-3,0
SALSAT,2020-068K,2026-06-03T23:56:12.056064,15.29597840,.0009364,97.8850,157.2614,359.9507,0.1729,0,U,46495,999,31334,.30076E-3,.8555E-4,0
ICEYE-X6,2020-068M,2026-06-04T05:19:46.105824,15.04447182,.0008609,98.0969,148.2758,125.4623,234.7406,0,U,46497,999,31128,.18634E-3,.2539E-4,0
NETSAT-4,2020-068U,2026-06-03T13:50:19.818528,15.43386179,.00056992,97.8606,161.7287,30.7472,329.4107,0,U,46504,999,31367,.42675312E-3,.18989E-3,0
NETSAT-3,2020-068V,2026-06-03T13:44:11.895360,15.42183437,.00060677,97.8653,159.9578,46.7511,313.4240,0,U,46505,999,31358,.45992462E-3,.19667E-3,0
NETSAT-1,2020-068W,2026-06-03T12:09:18.183744,15.34296018,.00064563,97.8746,154.3780,68.9909,291.2022,0,U,46506,999,31320,.43777397E-3,.14469E-3,0
NETSAT-2,2020-068X,2026-06-03T13:40:59.490336,15.45384645,.00051933,97.8621,161.5679,62.6477,297.5299,0,U,46507,999,31363,.51556175E-3,.24586E-3,0
TIANQI-6,2020-076D,2026-06-03T14:59:14.195904,15.07086378,.00094241,34.9978,131.6964,46.3228,313.8262,0,U,46810,999,30653,.27311214E-3,.4161E-4,0
KSM1-C,2020-081B,2026-06-04T05:02:29.882976,15.26510745,.0000718,36.8932,139.0451,161.2570,198.8206,0,U,46906,999,30718,.31438E-3,.8314E-4,0
KSM1-D,2020-081C,2026-06-04T04:40:20.255232,15.24526372,.0003388,36.8946,147.8978,173.2802,186.7992,0,U,46907,999,30711,.26341E-3,.6541E-4,0
KSM1-A,2020-081H,2026-06-04T04:57:36.529920,15.25742319,.000423,36.8942,141.3623,225.7744,134.2658,0,U,46912,999,30719,.32239E-3,.8332E-4,0
R2,2020-081J,2026-06-01T01:57:08.509536,15.25182244,.00068263,36.8961,160.5241,158.1099,201.9942,0,U,46913,999,30952,.346666E-3,.882E-4,0
KSM1-B,2020-081K,2026-06-04T04:42:44.695296,15.24321144,.0005444,36.9003,148.4626,186.8149,173.2527,0,U,46914,999,31020,.29806E-3,.7371E-4,0
GONETS-M 20,2020-091A,2026-06-04T03:02:14.003808,12.42892830,.0020573,82.5037,310.5559,206.5760,153.4267,0,U,47227,999,24945,-.47912E-3,-.57E-6,0
GONETS-M 21,2020-091B,2026-06-04T04:20:25.230912,12.42886395,.0014126,82.4960,309.2370,219.8559,140.1485,0,U,47228,999,24945,.40363E-2,.569E-5,0
GONETS-M 22,2020-091C,2026-06-04T03:41:45.485088,12.42892017,.0021509,82.5020,310.1465,201.8300,158.1865,0,U,47229,999,24940,-.12109E-3,-.7E-7,0
CUBEL,2021-006AM,2026-06-03T21:57:39.021408,15.40795651,.000585,97.2338,205.6277,206.0472,154.0481,0,U,47448,999,29771,.22533E-3,.9151E-4,0
ARKTIKA-M 1,2021-016A,2026-06-02T00:56:25.095840,2.00628509,.72832396,63.2379,59.8266,269.8643,14.6915,0,U,47719,999,3848,0,-.2E-5,0
STARLINK-2342,2021-021Z,2026-06-04T04:00:03.000096,15.69868115,.0001617,53.1541,213.0401,85.8364,138.7388,0,U,47883,999,597,.87526E-2,.1183988E-1,0
GRUS-1B,2021-022C,2026-06-04T03:50:02.472576,14.98958843,.0016712,97.5400,38.7842,13.2074,346.9583,0,U,47934,999,28394,.20644E-3,.2448E-4,0
UNISAT-7,2021-022P,2026-06-04T00:52:33.262176,15.40095960,.0011118,97.3901,59.8267,116.9474,243.2909,0,U,47945,999,28783,.38632E-3,.15422E-3,0
GLOBAL-9,2021-023G,2026-06-03T22:42:09.984096,15.46052589,.0004941,44.9824,324.9238,252.5688,107.4661,0,U,47971,999,29289,.48948E-3,.24185E-3,0
AII-BRAVO,2021-034C,2026-06-03T02:39:48.821472,15.03352815,.00050364,97.5600,209.3420,320.0663,40.0192,0,U,48270,999,27750,.36837887E-3,.4945E-4,0
TYVAK-182A,2021-034D,2026-06-03T15:27:23.149152,15.06036847,.0006261,97.5726,213.7969,29.8234,330.3348,0,U,48271,999,27779,.45239E-3,.6543E-4,0
CSS (TIANHE),2021-035A,2026-06-04T02:43:28.756128,15.60233359,.0009764,41.4695,41.5326,338.4220,21.6207,0,U,48274,999,29112,.30785E-3,.25633E-3,0
TYVAK-0130,2021-041BF,2026-06-04T00:35:31.068960,15.27369068,.0011253,52.9942,87.2052,124.8097,235.3960,0,U,48606,999,27837,.35106E-3,.9208E-4,0
